[
    {
        "Altitude(m)": 702908.2569440772,
        "Argument of Periapsis(deg)": 0.010251109067964361,
        "Eccentricity": 0.0,
        "Inclination(deg)": 45.0,
        "Latitude(deg)": 18.609647360249877,
        "Longitude(deg)": -41.12598788413192,
        "Mean Anomaly(deg)": 26.743494982732752,
        "RAAN(deg)": 39.99032325268762,
        "Satellite Name": "Constellation 1 177",
        "Satellite Number": 177,
        "Semi-Major Axis(m)": 7083131.272910544,
        "Time(s)": 171
    },
    {
        "Altitude(m)": 702911.0657263902,
        "Argument of Periapsis(deg)": 0.010311057074209765,
        "Eccentricity": 0.0,
        "Inclination(deg)": 45.0,
        "Latitude(deg)": 18.650336922992437,
        "Longitude(deg)": -41.08238269307516,
        "Mean Anomaly(deg)": 26.804196122982642,
        "RAAN(deg)": 39.99026666352204,
        "Satellite Name": "Constellation 1 177",
        "Satellite Number": 177,
        "Semi-Major Axis(m)": 7083131.272910544,
        "Time(s)": 172
    },
    {
        "Altitude(m)": 702913.889457204,
        "Argument of Periapsis(deg)": 0.010371005080455171,
        "Eccentricity": 0.0,
        "Inclination(deg)": 45.0,
        "Latitude(deg)": 18.691014215731215,
        "Longitude(deg)": -41.03875475550676,
        "Mean Anomaly(deg)": 26.86489726323254,
        "RAAN(deg)": 39.990210074356476,
        "Satellite Name": "Constellation 1 177",
        "Satellite Number": 177,
        "Semi-Major Axis(m)": 7083131.272910544,
        "Time(s)": 173
    },
    {
        "Altitude(m)": 702916.7281067707,
        "Argument of Periapsis(deg)": 0.010430953086700577,
        "Eccentricity": 0.0,
        "Inclination(deg)": 45.0,
        "Latitude(deg)": 18.731679204033806,
        "Longitude(deg)": -40.99510401420646,
        "Mean Anomaly(deg)": 26.925598403482432,
        "RAAN(deg)": 39.99015348519091,
        "Satellite Name": "Constellation 1 177",
        "Satellite Number": 177,
        "Semi-Major Axis(m)": 7083131.272910544,
        "Time(s)": 174
    },
    {
        "Altitude(m)": 702919.581645291,
        "Argument of Periapsis(deg)": 0.010490901092945983,
        "Eccentricity": 0.0,
        "Inclination(deg)": 45.0,
        "Latitude(deg)": 18.772331853422898,
        "Longitude(deg)": -40.95143041192403,
        "Mean Anomaly(deg)": 26.986299543732336,
        "RAAN(deg)": 39.990096896025335,
        "Satellite Name": "Constellation 1 177",
        "Satellite Number": 177,
        "Semi-Major Axis(m)": 7083131.272910544,
        "Time(s)": 175
    },
    {
        "Altitude(m)": 702922.4500428953,
        "Argument of Periapsis(deg)": 0.010550849099191389,
        "Eccentricity": 0.0,
        "Inclination(deg)": 45.0,
        "Latitude(deg)": 18.812972129376156,
        "Longitude(deg)": -40.90773389137915,
        "Mean Anomaly(deg)": 27.047000683982237,
        "RAAN(deg)": 39.99004030685977,
        "Satellite Name": "Constellation 1 177",
        "Satellite Number": 177,
        "Semi-Major Axis(m)": 7083131.272910544,
        "Time(s)": 176
    },
    {
        "Altitude(m)": 702925.3332696727,
        "Argument of Periapsis(deg)": 0.010610797105436795,
        "Eccentricity": 0.0,
        "Inclination(deg)": 45.0,
        "Latitude(deg)": 18.853599997325986,
        "Longitude(deg)": -40.86401439526158,
        "Mean Anomaly(deg)": 27.107701824232127,
        "RAAN(deg)": 39.989983717694194,
        "Satellite Name": "Constellation 1 177",
        "Satellite Number": 177,
        "Semi-Major Axis(m)": 7083131.272910544,
        "Time(s)": 177
    },
    {
        "Altitude(m)": 702928.2312956416,
        "Argument of Periapsis(deg)": 0.0106707451116822,
        "Eccentricity": 0.0,
        "Inclination(deg)": 45.0,
        "Latitude(deg)": 18.894215422659386,
        "Longitude(deg)": -40.820272034327985,
        "Mean Anomaly(deg)": 27.16840296448204,
        "RAAN(deg)": 39.98992712852863,
        "Satellite Name": "Constellation 1 177",
        "Satellite Number": 177,
        "Semi-Major Axis(m)": 7083131.272910544,
        "Time(s)": 178
    },
    {
        "Altitude(m)": 702931.1440907635,
        "Argument of Periapsis(deg)": 0.010730693117927606,
        "Eccentricity": 0.0,
        "Inclination(deg)": 45.0,
        "Latitude(deg)": 18.93481837071851,
        "Longitude(deg)": -40.776506415014346,
        "Mean Anomaly(deg)": 27.229104104731945,
        "RAAN(deg)": 39.989870539363054,
        "Satellite Name": "Constellation 1 177",
        "Satellite Number": 177,
        "Semi-Major Axis(m)": 7083131.272910544,
        "Time(s)": 179
    },
    {
        "Altitude(m)": 702934.0716249543,
        "Argument of Periapsis(deg)": 0.01079064112417301,
        "Eccentricity": 0.0,
        "Inclination(deg)": 45.0,
        "Latitude(deg)": 18.975408806799397,
        "Longitude(deg)": -40.73271764801769,
        "Mean Anomaly(deg)": 27.28980524498184,
        "RAAN(deg)": 39.98981395019749,
        "Satellite Name": "Constellation 1 177",
        "Satellite Number": 177,
        "Semi-Major Axis(m)": 7083131.272910544,
        "Time(s)": 180
    },
    {
        "Altitude(m)": 702937.0138680575,
        "Argument of Periapsis(deg)": 0.010850589130418416,
        "Eccentricity": 0.0,
        "Inclination(deg)": 45.0,
        "Latitude(deg)": 19.01598669615267,
        "Longitude(deg)": -40.688905675908224,
        "Mean Anomaly(deg)": 27.350506385231736,
        "RAAN(deg)": 39.98975736103192,
        "Satellite Name": "Constellation 1 177",
        "Satellite Number": 177,
        "Semi-Major Axis(m)": 7083131.272910544,
        "Time(s)": 181
    },
    {
        "Altitude(m)": 702939.9707898692,
        "Argument of Periapsis(deg)": 0.01091053713666382,
        "Eccentricity": 0.0,
        "Inclination(deg)": 45.0,
        "Latitude(deg)": 19.056552003983175,
        "Longitude(deg)": -40.64507044122645,
        "Mean Anomaly(deg)": 27.41120752548163,
        "RAAN(deg)": 39.98970077186635,
        "Satellite Name": "Constellation 1 177",
        "Satellite Number": 177,
        "Semi-Major Axis(m)": 7083131.272910544,
        "Time(s)": 182
    },
    {
        "Altitude(m)": 702942.9423601241,
        "Argument of Periapsis(deg)": 0.010970485142909228,
        "Eccentricity": 0.0,
        "Inclination(deg)": 45.0,
        "Latitude(deg)": 19.0971046954499,
        "Longitude(deg)": -40.60121188648315,
        "Mean Anomaly(deg)": 27.471908665731526,
        "RAAN(deg)": 39.98964418270078,
        "Satellite Name": "Constellation 1 177",
        "Satellite Number": 177,
        "Semi-Major Axis(m)": 7083131.272910544,
        "Time(s)": 183
    },
    {
        "Altitude(m)": 702945.9285485097,
        "Argument of Periapsis(deg)": 0.011030433149154634,
        "Eccentricity": 0.0,
        "Inclination(deg)": 45.0,
        "Latitude(deg)": 19.137644735665837,
        "Longitude(deg)": -40.55732995415953,
        "Mean Anomaly(deg)": 27.532609805981433,
        "RAAN(deg)": 39.98958759353521,
        "Satellite Name": "Constellation 1 177",
        "Satellite Number": 177,
        "Semi-Major Axis(m)": 7083131.272910544,
        "Time(s)": 184
    },
    {
        "Altitude(m)": 702948.9293246345,
        "Argument of Periapsis(deg)": 0.01109038115540004,
        "Eccentricity": 0.0,
        "Inclination(deg)": 45.0,
        "Latitude(deg)": 19.178172089697703,
        "Longitude(deg)": -40.51342475480413,
        "Mean Anomaly(deg)": 27.59331094623133,
        "RAAN(deg)": 39.98953100436964,
        "Satellite Name": "Constellation 1 177",
        "Satellite Number": 177,
        "Semi-Major Axis(m)": 7083131.272910544,
        "Time(s)": 185
    },
    {
        "Altitude(m)": 702951.944658083,
        "Argument of Periapsis(deg)": 0.011150329161645444,
        "Eccentricity": 0.0,
        "Inclination(deg)": 45.0,
        "Latitude(deg)": 19.218686722566563,
        "Longitude(deg)": -40.46949589464503,
        "Mean Anomaly(deg)": 27.654012086481224,
        "RAAN(deg)": 39.98947441520407,
        "Satellite Name": "Constellation 1 177",
        "Satellite Number": 177,
        "Semi-Major Axis(m)": 7083131.272910544,
        "Time(s)": 186
    },
    {
        "Altitude(m)": 702954.9745183497,
        "Argument of Periapsis(deg)": 0.01121027716789085,
        "Eccentricity": 0.0,
        "Inclination(deg)": 45.0,
        "Latitude(deg)": 19.25918859924664,
        "Longitude(deg)": -40.42554348417175,
        "Mean Anomaly(deg)": 27.714713226731135,
        "RAAN(deg)": 39.9894178260385,
        "Satellite Name": "Constellation 1 177",
        "Satellite Number": 177,
        "Semi-Major Axis(m)": 7083131.272910544,
        "Time(s)": 187
    },
    {
        "Altitude(m)": 702958.0188749023,
        "Argument of Periapsis(deg)": 0.011270225174136258,
        "Eccentricity": 0.0,
        "Inclination(deg)": 45.0,
        "Latitude(deg)": 19.2996776846658,
        "Longitude(deg)": -40.38156746574742,
        "Mean Anomaly(deg)": 27.77541436698103,
        "RAAN(deg)": 39.98936123687294,
        "Satellite Name": "Constellation 1 177",
        "Satellite Number": 177,
        "Semi-Major Axis(m)": 7083131.272910544,
        "Time(s)": 188
    },
    {
        "Altitude(m)": 702961.0776971275,
        "Argument of Periapsis(deg)": 0.011330173180381662,
        "Eccentricity": 0.0,
        "Inclination(deg)": 45.0,
        "Latitude(deg)": 19.340153943705403,
        "Longitude(deg)": -40.337567781705886,
        "Mean Anomaly(deg)": 27.83611550723093,
        "RAAN(deg)": 39.989304647707364,
        "Satellite Name": "Constellation 1 177",
        "Satellite Number": 177,
        "Semi-Major Axis(m)": 7083131.272910544,
        "Time(s)": 189
    }
]